COSMOS 2433 [GLONASS-M] 
1 32275U 07052A   26129.43653047 -.00000012  00000+0  00000+0 0  9997
2 32275  65.5989 317.2378 0001154 189.3262 170.6903  2.13104355144230
COSMOS 2432 [GLONASS-M] 
1 32276U 07052B   26129.48049652 -.00000012  00000+0  00000+0 0  9994
2 32276  65.6150 317.3634 0008669 337.7319   0.0321  2.13103437144250
COSMOS 2434 [GLONASS-M] 
1 32393U 07065A   26130.51252392  .00000043  00000+0  00000+0 0  9994
2 32393  64.3159 193.1863 0001338  41.0880 314.4141  2.13101518142969
COSMOS 2436 [GLONASS-M] 
1 32395U 07065C   26127.14265252  .00000028  00000+0  00000+0 0  9993
2 32395  64.3241 193.3717 0017190 357.9055  64.8346  2.13100394142851
COSMOS 2456 [GLONASS-M] 
1 36111U 09070A   26129.60157291  .00000012  00000+0  00000+0 0  9990
2 36111  64.9902  72.2874 0005846 319.1625 215.4151  2.13103862127605
COSMOS 2457 [GLONASS-M] 
1 36112U 09070B   26130.86540428  .00000008  00000+0  00000+0 0  9994
2 36112  64.9765  72.0888 0001426 150.5868  41.3157  2.13101269127636
COSMOS 2460 [GLONASS-M] 
1 36402U 10007C   26127.56024126 -.00000020  00000+0  00000+0 0  9998
2 36402  65.4441 315.8409 0002334  73.0027 105.0928  2.13106390125864
COSMOS 2476 [GLONASS-M] 
1 37867U 11064A   26129.13366769  .00000017  00000+0  00000+0 0  9990
2 37867  65.2492  74.1889 0023864 241.6126 202.3393  2.13103922112934
COSMOS 2477 [GLONASS-M] 
1 37868U 11064B   26130.91215149  .00000013  00000+0  00000+0 0  9990
2 37868  65.2567  74.2078 0020929 243.1648 305.6391  2.13103152112967
COSMOS 2475 [GLONASS-M] 
1 37869U 11064C   26129.48178144  .00000017  00000+0  00000+0 0  9998
2 37869  65.2627  74.2779 0026656 254.9839 231.7650  2.13101748112942
COSMOS 2485 [GLONASS-M] 
1 39155U 13019A   26128.96145381  .00000019  00000+0  00000+0 0  9991
2 39155  65.3994  74.9198 0024214 236.9951 122.7618  2.13103363101446
COSMOS 2492 [GLONASS-M] 
1 39620U 14012A   26129.38966135 -.00000011  00000+0  00000+0 0  9990
2 39620  65.3203 315.2545 0011098 329.7315  30.2203  2.13103326 94414
COSMOS 2500 [GLONASS-M] 
1 40001U 14032A   26129.09065559 -.00000012  00000+0  00000+0 0  9996
2 40001  65.2556 315.0151 0005992 181.4520 178.5615  2.13106197 92620
COSMOS 2501 [GLONASS-K] 
1 40315U 14075A   26129.35221628  .00000036  00000+0  00000+0 0  9996
2 40315  63.6143 191.7161 0022073 210.6591 149.2838  2.13101511 89021
COSMOS 2514 [GLONASS-M] 
1 41330U 16008A   26130.74439794 -.00000009  00000+0  00000+0 0  9993
2 41330  65.0443 314.2915 0009918 197.1517 162.8310  2.13102718 79820
COSMOS 2522 [GLONASS-M] 
1 42939U 17055A   26129.17449110  .00000033  00000+0  00000+0 0  9996
2 42939  64.0765 193.2117 0009763 237.3323 122.6451  2.13102008 67145
COSMOS 2527 [GLONASS-M] 
1 43508U 18053A   26130.54369204  .00000017  00000+0  00000+0 0  9998
2 43508  65.5581  75.1623 0008163 246.5725 113.3310  2.13102293 61478
COSMOS 2529 [GLONASS-M] 
1 43687U 18086A   26129.23270130  .00000032  00000+0  00000+0 0  9992
2 43687  64.2927 193.9095 0011129 255.8026 104.1450  2.13101986 58456
COSMOS 2534 [GLONASS-M] 
1 44299U 19030A   26130.46780834  .00000041  00000+0  00000+0 0  9996
2 44299  64.3663 193.8862 0012337 276.0898  85.9352  2.13102604 54124
COSMOS 2544 [GLONASS-M] 
1 44850U 19088A   26129.54986514  .00000019  00000+0  00000+0 0  9997
2 44850  65.5453  75.0195 0014613 261.5016  98.3227  2.13102114 49890
COSMOS 2545 [GLONASS-M] 
1 45358U 20018A   26127.86810108 -.00000019  00000+0  00000+0 0  9995
2 45358  64.3797 313.8358 0007177 236.2540 123.6887  2.13102735 47806
COSMOS 2547 [GLONASS-K] 
1 46805U 20075A   26125.24171473  .00000033  00000+0  00000+0 0  9996
2 46805  64.5969 193.9081 0008440 236.6486 123.3485  2.13100494 42990
COSMOS 2557 [GLONASS-K] 
1 52984U 22075A   26124.46778403 -.00000043  00000+0  00000+0 0  9994
2 52984  64.3237 316.0251 0010121 280.7053  79.1925  2.13102174 29783
COSMOS 2559 [GLONASS-K] 
1 54031U 22130A   26129.91845222 -.00000013  00000+0  00000+0 0  9997
2 54031  64.2936 315.9180 0011690 176.1205 183.9057  2.13101575 27873
COSMOS 2564 [GLONASS-M] 
1 54377U 22161A   26130.23109924  .00000039  00000+0  00000+0 0  9990
2 54377  64.7390 193.9713 0011450 221.6338 138.3500  2.13102022 26827
COSMOS 2569 [GLONASS-K2]
1 57517U 23114A   26130.24351676  .00000015  00000+0  00000+0 0  9996
2 57517  65.2820  73.8994 0012027 296.0045  63.8620  2.13103768 21456
COSMOS 2584 [GLONASS-K2]
1 63130U 25042A   26129.66115078  .00000016  00000+0  00000+0 0  9995
2 63130  65.0639  74.1112 0006433 235.4718 124.4579  2.13103762  9226
COSMOS 2596 [GLONASS-K1]
1 65590U 25206B   26128.57317766 -.00000017  00000+0  00000+0 0  9998
2 65590  64.6585 316.3650 0011483 316.3933  45.6732  2.13100763  5072
